NORAD_CAT_ID,OBJECT_NAME,OBJECT_TYPE,EPOCH,MEAN_MOTION,ECCENTRICITY,INCLINATION,RA_OF_ASC_NODE,ARG_OF_PERICENTER,MEAN_ANOMALY,BSTAR,MEAN_MOTION_DOT,MEAN_MOTION_DDOT,TLE_LINE0,TLE_LINE1,TLE_LINE2,SEMIMAJOR_AXIS,PERIOD,APOGEE,PERIGEE,DECAYED
51465.0,STARLINK-3401,PAYLOAD,2023-01-31 04:31:54,15.08848383,0.0001501,53.2155,327.6137,98.084,262.0323,0.00043116,6.582e-05,0.0,0 STARLINK-3401,1 51465U 22010K   23031.18882319  .00006582  00000-0  43116-3 0  9994,2 51465  53.2155 327.6137 0001501  98.0840 262.0323 15.08848383 56208,6917.855,95.437,540.758,538.681,0.0
51465.0,STARLINK-3401,PAYLOAD,2023-02-01 04:22:41,15.08850329,0.0001452,53.2149,323.1528,92.3728,267.743,0.00023041,3.382e-05,0.0,0 STARLINK-3401,1 51465U 22010K   23032.18241931  .00003382  00000-0  23041-3 0  9994,2 51465  53.2149 323.1528 0001452  92.3728 267.7430 15.08850329 56353,6917.849,95.437,540.718,538.709,0.0
51465.0,STARLINK-3401,PAYLOAD,2023-02-02 02:38:06,15.08828633,0.000146,53.2151,318.9896,92.4234,267.6925,-0.00017341,-3.046e-05,0.0,0 STARLINK-3401,1 51465U 22010K   23033.10979356 -.00003046  00000-0 -17341-3 0  9991,2 51465  53.2151 318.9896 0001460  92.4234 267.6925 15.08828633 56494,6917.915,95.438,540.79,538.77,0.0
51465.0,STARLINK-3401,PAYLOAD,2023-02-02 04:13:29,15.08830218,0.0001453,53.215,318.6922,94.332,265.7838,-0.00014236,-2.552e-05,0.0,0 STARLINK-3401,1 51465U 22010K   23033.17603320 -.00002552  00000-0 -14236-3 0  9994,2 51465  53.2150 318.6922 0001453  94.3320 265.7838 15.08830218 56505,6917.91,95.438,540.78,538.77,0.0
51465.0,STARLINK-3401,PAYLOAD,2023-02-02 21:42:43,15.08846457,0.0001627,53.2145,315.4242,78.1617,281.9558,5.4073e-05,5.73e-06,0.0,0 STARLINK-3401,1 51465U 22010K   23033.90466705  .00000573  00000-0  54073-4 0  9992,2 51465  53.2145 315.4242 0001627  78.1617 281.9558 15.08846457 56614,6917.861,95.437,540.851,538.6,0.0
51465.0,STARLINK-3401,PAYLOAD,2023-02-03 04:04:15,15.08855796,0.0001359,53.2149,314.2326,98.9716,261.143,0.00026948,4.005e-05,0.0,0 STARLINK-3401,1 51465U 22010K   23034.16962200  .00004005  00000-0  26948-3 0  9995,2 51465  53.2149 314.2326 0001359  98.9716 261.1430 15.08855796 56659,6917.832,95.437,540.637,538.757,0.0
51465.0,STARLINK-3401,PAYLOAD,2023-02-03 18:22:44,15.08840042,0.000199,53.2143,311.5549,97.0462,263.0756,0.00028716,4.285e-05,0.0,0 STARLINK-3401,1 51465U 22010K   23034.76579259  .00004285  00000-0  28716-3 0  9994,2 51465  53.2143 311.5549 0001990  97.0462 263.0756 15.08840042 56749,6917.88,95.438,541.122,538.369,0.0
51465.0,STARLINK-3401,PAYLOAD,2023-02-04 03:55:02,15.08853115,0.0001478,53.2145,309.7713,91.8331,268.283,0.00042178,6.433e-05,0.0,0 STARLINK-3401,1 51465U 22010K   23035.16322732  .00006433  00000-0  42178-3 0  9996,2 51465  53.2145 309.7713 0001478  91.8331 268.2830 15.08853115 56803,6917.84,95.437,540.728,538.683,0.0
51465.0,STARLINK-3401,PAYLOAD,2023-02-04 21:24:17,15.08847877,0.0001566,53.2145,306.4995,94.6233,265.4938,0.00015302,2.149e-05,0.0,0 STARLINK-3401,1 51465U 22010K   23035.89186588  .00002149  00000-0  15302-3 0  9992,2 51465  53.2145 306.4995 0001566  94.6233 265.4938 15.08847877 56917,6917.856,95.437,540.805,538.638,0.0
51465.0,STARLINK-3401,PAYLOAD,2023-02-04 22:59:40,15.08851985,0.00015,53.2149,306.2016,98.4529,261.6633,0.0001578,2.225e-05,0.0,0 STARLINK-3401,1 51465U 22010K   23035.95810325  .00002225  00000-0  15780-3 0  9997,2 51465  53.2149 306.2016 0001500  98.4529 261.6633 15.08851985 56927,6917.844,95.437,540.746,538.671,0.0
51465.0,STARLINK-3401,PAYLOAD,2023-02-05 03:45:49,15.08855746,0.0001602,53.2145,305.3099,86.4271,273.6904,0.00026614,3.952e-05,0.0,0 STARLINK-3401,1 51465U 22010K   23036.15682129  .00003952  00000-0  26614-3 0  9995,2 51465  53.2145 305.3099 0001602  86.4271 273.6904 15.08855746 56954,6917.832,95.437,540.805,538.589,0.0
51465.0,STARLINK-3401,PAYLOAD,2023-02-05 18:04:17,15.08842403,0.0001433,53.2144,302.6336,89.838,270.2777,7.159e-05,8.52e-06,0.0,0 STARLINK-3401,1 51465U 22010K   23036.75298561  .00000852  00000-0  71590-4 0  9994,2 51465  53.2144 302.6336 0001433  89.8380 270.2777 15.08842403 57045,6917.873,95.437,540.729,538.747,0.0
51465.0,STARLINK-3401,PAYLOAD,2023-02-05 21:15:03,15.08849275,0.0001521,53.2153,302.0396,93.565,266.5516,0.00015637,2.202e-05,0.0,0 STARLINK-3401,1 51465U 22010K   23036.88546291  .00002202  00000-0  15637-3 0  9994,2 51465  53.2153 302.0396 0001521  93.5650 266.5516 15.08849275 57060,6917.852,95.437,540.769,538.665,0.0
51465.0,STARLINK-3401,PAYLOAD,2023-02-06 03:36:36,15.08854505,0.0001444,53.2143,300.8501,84.8747,275.241,0.00032891,4.953e-05,0.0,0 STARLINK-3401,1 51465U 22010K   23037.15042054  .00004953  00000-0  32891-3 0  9999,2 51465  53.2143 300.8501 0001444  84.8747 275.2410 15.08854505 57104,6917.836,95.437,540.7,538.702,0.0
51465.0,STARLINK-3401,PAYLOAD,2023-02-06 21:05:50,15.08847724,0.0001441,53.2144,297.5783,89.7902,270.3255,0.00022815,3.346e-05,0.0,0 STARLINK-3401,1 51465U 22010K   23037.87906244  .00003346  00000-0  22815-3 0  9998,2 51465  53.2144 297.5783 0001441  89.7902 270.3255 15.08847724 57213,6917.857,95.437,540.719,538.725,0.0
51465.0,STARLINK-3401,PAYLOAD,2023-02-07 03:27:23,15.08863216,0.0001348,53.2144,296.3892,90.724,269.3906,0.0010036,0.0001573,0.0,0 STARLINK-3401,1 51465U 22010K   23038.14401979  .00015730  00000-0  10036-2 0  9995,2 51465  53.2144 296.3892 0001348  90.7240 269.3906 15.08863216 57253,6917.809,95.436,540.607,538.742,0.0
51465.0,STARLINK-3401,PAYLOAD,2023-02-07 20:56:38,15.08843845,0.0001242,53.2136,293.1191,83.636,276.4773,0.0010841,0.00017009,0.0,0 STARLINK-3401,1 51465U 22010K   23038.87266561  .00017009  00000-0  10841-2 0  9996,2 51465  53.2136 293.1191 0001242  83.6360 276.4773 15.08843845 57367,6917.869,95.437,540.593,538.874,0.0
51465.0,STARLINK-3401,PAYLOAD,2023-02-07 22:32:01,15.08847329,0.0001293,53.2138,292.8213,85.3486,274.7654,0.00095443,0.00014937,0.0,0 STARLINK-3401,1 51465U 22010K   23038.93890506  .00014937  00000-0  95443-3 0  9994,2 51465  53.2138 292.8213 0001293  85.3486 274.7654 15.08847329 57375,6917.858,95.437,540.617,538.829,0.0
51465.0,STARLINK-3401,PAYLOAD,2023-02-08 03:18:10,15.08854121,0.0001245,53.2136,291.9286,88.5099,271.6036,0.0010179,0.00015955,0.0,0 STARLINK-3401,1 51465U 22010K   23039.13762170  .00015955  00000-0  10179-2 0  9995,2 51465  53.2136 291.9286 0001245  88.5099 271.6036 15.08854121 57407,6917.837,95.437,540.563,538.841,0.0
51465.0,STARLINK-3401,PAYLOAD,2023-02-08 22:22:48,15.08847143,0.0001096,53.2127,288.3596,74.7083,285.403,0.0010579,0.00016592,0.0,0 STARLINK-3401,1 51465U 22010K   23039.93250785  .00016592  00000-0  10579-2 0  9999,2 51465  53.2127 288.3596 0001096  74.7083 285.4030 15.08847143 57521,6917.859,95.437,540.482,538.965,0.0
51465.0,STARLINK-3401,PAYLOAD,2023-02-08 23:58:11,15.08854774,9.72e-05,53.2129,288.0602,111.5365,248.5731,0.0010924,0.00017147,0.0,0 STARLINK-3401,1 51465U 22010K   23039.99874451  .00017147  00000-0  10924-2 0  9998,2 51465  53.2129 288.0602 0000972 111.5365 248.5731 15.08854774 57530,6917.835,95.437,540.373,539.028,0.0
51465.0,STARLINK-3401,PAYLOAD,2023-02-09 22:13:36,15.08841549,9.26e-05,53.2132,283.9012,90.8493,269.2605,0.00087255,0.00013627,0.0,0 STARLINK-3401,1 51465U 22010K   23040.92611126  .00013627  00000-0  87255-3 0  9992,2 51465  53.2132 283.9012 0000926  90.8493 269.2605 15.08841549 57674,6917.876,95.437,540.381,539.1,0.0
51465.0,STARLINK-3401,PAYLOAD,2023-02-10 01:24:22,15.08852628,8.97e-05,53.2121,283.307,79.4138,280.6955,0.00098389,0.00015411,0.0,0 STARLINK-3401,1 51465U 22010K   23041.05858985  .00015411  00000-0  98389-3 0  9996,2 51465  53.2121 283.3070 0000897  79.4138 280.6955 15.08852628 57693,6917.842,95.437,540.327,539.086,0.0
51465.0,STARLINK-3401,PAYLOAD,2023-02-10 22:04:23,15.08844813,0.0001176,53.2135,279.4384,77.4513,282.661,0.0011464,0.00018006,0.0,0 STARLINK-3401,1 51465U 22010K   23041.91971441  .00018006  00000-0  11464-2 0  9995,2 51465  53.2135 279.4384 0001176  77.4513 282.6610 15.08844813 57820,6917.866,95.437,540.544,538.917,0.0
51465.0,STARLINK-3401,PAYLOAD,2023-02-11 21:55:10,15.08846673,0.0001088,53.2139,274.9775,78.888,281.2234,0.0011305,0.00017753,0.0,0 STARLINK-3401,1 51465U 22010K   23042.91331674  .00017753  00000-0  11305-2 0  9996,2 51465  53.2139 274.9775 0001088  78.8880 281.2234 15.08846673 57971,6917.86,95.437,540.478,538.972,0.0
51465.0,STARLINK-3401,PAYLOAD,2023-02-12 21:45:58,15.08844969,0.0002211,53.2124,270.5162,84.9248,275.1997,0.00098652,0.0001545,0.0,0 STARLINK-3401,1 51465U 22010K   23043.90692205  .00015450  00000-0  98652-3 0  9999,2 51465  53.2124 270.5162 0002211  84.9248 275.1997 15.08844969 58124,6917.865,95.437,541.26,538.201,0.0
51465.0,STARLINK-3401,PAYLOAD,2023-02-13 00:56:44,15.08843614,0.0001611,53.2141,269.9216,76.7963,283.3209,0.00094258,0.00014746,0.0,0 STARLINK-3401,1 51465U 22010K   23044.03940257  .00014746  00000-0  94258-3 0  9992,2 51465  53.2141 269.9216 0001611  76.7963 283.3209 15.08843614 58146,6917.869,95.437,540.849,538.62,0.0
51465.0,STARLINK-3401,PAYLOAD,2023-02-13 15:15:12,15.08841909,0.0001338,53.2125,267.2441,67.1634,292.9499,0.00041712,6.357e-05,0.0,0 STARLINK-3401,1 51465U 22010K   23044.63556367  .00006357  00000-0  41712-3 0  9999,2 51465  53.2125 267.2441 0001338  67.1634 292.9499 15.08841909 58236,6917.875,95.437,540.665,538.814,0.0
51465.0,STARLINK-3401,PAYLOAD,2023-02-14 07:09:03,15.08863258,0.0001336,53.2119,264.2699,69.3456,290.7679,0.00078502,0.00012236,0.0,0 STARLINK-3401,1 51465U 22010K   23045.29795568  .00012236  00000-0  78502-3 0  9990,2 51465  53.2119 264.2699 0001336  69.3456 290.7679 15.08863258 58333,6917.809,95.436,540.599,538.75,0.0
51465.0,STARLINK-3401,PAYLOAD,2023-02-14 21:27:31,15.08849361,0.0002015,53.2142,261.5934,80.3225,279.7995,0.00048569,7.452e-05,0.0,0 STARLINK-3401,1 51465U 22010K   23045.89411961  .00007452  00000-0  48569-3 0  9992,2 51465  53.2142 261.5934 0002015  80.3225 279.7995 15.08849361 58420,6917.852,95.437,541.111,538.323,0.0
